{
  "type": "FeatureCollection",
  "features": [
    {
      "type": "Feature",
      "properties": {
        "norad_id": 41384,
        "name": "IRNSS-1F",
        "group": "gnss",
        "lat": 4.602135883001586,
        "lon": -150.73916377452483,
        "alt_km": 35756.49502551851,
        "timestamp": "2025-12-03T06:58:43.478698+00:00",
        "meta_object_name": "IRNSS-1F",
        "meta_object_id": "2016-015A",
        "meta_epoch": "2025-12-02T01:57:08.559648",
        "meta_mean_motion": 1.00267041,
        "meta_eccentricity": 0.00223876,
        "meta_inclination": 4.8536,
        "meta_ra_of_asc_node": 101.5646,
        "meta_arg_of_pericenter": 179.4031,
        "meta_mean_anomaly": 211.926,
        "meta_ephemeris_type": 0,
        "meta_classification_type": "U",
        "meta_norad_cat_id": 41384,
        "meta_element_set_no": 999,
        "meta_rev_at_epoch": 3569,
        "meta_bstar": 0,
        "meta_mean_motion_dot": 1.79e-06,
        "meta_mean_motion_ddot": 0,
        "tle_line1": "1 41384U 16015A   25336.08134907  .00000179  00000+0  00000+0 0  9999",
        "tle_line2": "2 41384   4.8536 101.5646 0022387 179.4031 211.9260  1.00267041 35693"
      },
      "geometry": {
        "type": "Point",
        "coordinates": [
          -150.73916377452483,
          4.602135883001586
        ]
      }
    },
    {
      "type": "Feature",
      "properties": {
        "norad_id": 41434,
        "name": "BEIDOU-2 IGSO-6 (C13)",
        "group": "gnss",
        "lat": -40.71677932330017,
        "lon": -110.15404355243861,
        "alt_km": 35545.771013725614,
        "timestamp": "2025-12-03T06:58:43.478717+00:00",
        "meta_object_name": "BEIDOU-2 IGSO-6 (C13)",
        "meta_object_id": "2016-021A",
        "meta_epoch": "2025-12-01T15:57:35.287200",
        "meta_mean_motion": 1.00256562,
        "meta_eccentricity": 0.00591323,
        "meta_inclination": 59.9483,
        "meta_ra_of_asc_node": 40.0119,
        "meta_arg_of_pericenter": 231.2834,
        "meta_mean_anomaly": 130.8807,
        "meta_ephemeris_type": 0,
        "meta_classification_type": "U",
        "meta_norad_cat_id": 41434,
        "meta_element_set_no": 999,
        "meta_rev_at_epoch": 3550,
        "meta_bstar": 0,
        "meta_mean_motion_dot": -1.55e-06,
        "meta_mean_motion_ddot": 0,
        "tle_line1": "1 41434U 16021A   25335.66499175 -.00000155  00000+0  00000+0 0  9991",
        "tle_line2": "2 41434  59.9483  40.0119 0059132 231.2834 130.8807  1.00256562 35501"
      },
      "geometry": {
        "type": "Point",
        "coordinates": [
          -110.15404355243861,
          -40.71677932330017
        ]
      }
    },
    {
      "type": "Feature",
      "properties": {
        "norad_id": 41469,
        "name": "IRNSS-1G",
        "group": "gnss",
        "lat": -1.9389761953110451,
        "lon": -53.55440014863855,
        "alt_km": 35793.720310999604,
        "timestamp": "2025-12-03T06:58:43.478737+00:00",
        "meta_object_name": "IRNSS-1G",
        "meta_object_id": "2016-027A",
        "meta_epoch": "2025-12-02T20:10:51.611232",
        "meta_mean_motion": 1.00266361,
        "meta_eccentricity": 0.0001391,
        "meta_inclination": 4.7124,
        "meta_ra_of_asc_node": 102.3436,
        "meta_arg_of_pericenter": 15.7856,
        "meta_mean_anomaly": 26.0074,
        "meta_ephemeris_type": 0,
        "meta_classification_type": "U",
        "meta_norad_cat_id": 41469,
        "meta_element_set_no": 999,
        "meta_rev_at_epoch": 3521,
        "meta_bstar": 0,
        "meta_mean_motion_dot": -3.15e-06,
        "meta_mean_motion_ddot": 0,
        "tle_line1": "1 41469U 16027A   25336.84087513 -.00000315  00000+0  00000+0 0  9993",
        "tle_line2": "2 41469   4.7124 102.3436 0001391  15.7856  26.0074  1.00266361 35214"
      },
      "geometry": {
        "type": "Point",
        "coordinates": [
          -53.55440014863855,
          -1.9389761953110451
        ]
      }
    },
    {
      "type": "Feature",
      "properties": {
        "norad_id": 41549,
        "name": "GSAT0211 (GALILEO 14)",
        "group": "gnss",
        "lat": -51.98919853136068,
        "lon": 109.95597706016062,
        "alt_km": 23233.239984381988,
        "timestamp": "2025-12-03T06:58:43.478755+00:00",
        "meta_object_name": "GSAT0211 (GALILEO 14)",
        "meta_object_id": "2016-030A",
        "meta_epoch": "2025-12-01T16:54:04.942368",
        "meta_mean_motion": 1.70472896,
        "meta_eccentricity": 0.00038995,
        "meta_inclination": 55.1563,
        "meta_ra_of_asc_node": 227.1275,
        "meta_arg_of_pericenter": 10.5053,
        "meta_mean_anomaly": 349.5828,
        "meta_ephemeris_type": 0,
        "meta_classification_type": "U",
        "meta_norad_cat_id": 41549,
        "meta_element_set_no": 999,
        "meta_rev_at_epoch": 5930,
        "meta_bstar": 0,
        "meta_mean_motion_dot": 3.3e-07,
        "meta_mean_motion_ddot": 0,
        "tle_line1": "1 41549U 16030A   25335.70422387  .00000033  00000+0  00000+0 0  9998",
        "tle_line2": "2 41549  55.1563 227.1275 0003899  10.5053 349.5828  1.70472896 59309"
      },
      "geometry": {
        "type": "Point",
        "coordinates": [
          109.95597706016062,
          -51.98919853136068
        ]
      }
    },
    {
      "type": "Feature",
      "properties": {
        "norad_id": 41550,
        "name": "GSAT0210 (GALILEO 13)",
        "group": "gnss",
        "lat": 54.77094690284765,
        "lon": -32.99043478369947,
        "alt_km": 23218.8934099349,
        "timestamp": "2025-12-03T06:58:43.478776+00:00",
        "meta_object_name": "GSAT0210 (GALILEO 13)",
        "meta_object_id": "2016-030B",
        "meta_epoch": "2025-12-01T09:00:06.320160",
        "meta_mean_motion": 1.70473417,
        "meta_eccentricity": 0.00012162,
        "meta_inclination": 55.1557,
        "meta_ra_of_asc_node": 227.1346,
        "meta_arg_of_pericenter": 241.6156,
        "meta_mean_anomaly": 118.4503,
        "meta_ephemeris_type": 0,
        "meta_classification_type": "U",
        "meta_norad_cat_id": 41550,
        "meta_element_set_no": 999,
        "meta_rev_at_epoch": 5929,
        "meta_bstar": 0,
        "meta_mean_motion_dot": 3.2e-07,
        "meta_mean_motion_ddot": 0,
        "tle_line1": "1 41550U 16030B   25335.37507315  .00000032  00000+0  00000+0 0  9997",
        "tle_line2": "2 41550  55.1557 227.1346 0001216 241.6156 118.4503  1.70473417 59296"
      },
      "geometry": {
        "type": "Point",
        "coordinates": [
          -32.99043478369947,
          54.77094690284765
        ]
      }
    },
    {
      "type": "Feature",
      "properties": {
        "norad_id": 41586,
        "name": "BEIDOU-2 G7 (C03)",
        "group": "gnss",
        "lat": -1.1224387309598294,
        "lon": -72.51466242036312,
        "alt_km": 35801.68404531251,
        "timestamp": "2025-12-03T06:58:43.478794+00:00",
        "meta_object_name": "BEIDOU-2 G7 (C03)",
        "meta_object_id": "2016-037A",
        "meta_epoch": "2025-12-02T19:47:21.781824",
        "meta_mean_motion": 1.00271944,
        "meta_eccentricity": 0.000443,
        "meta_inclination": 1.7308,
        "meta_ra_of_asc_node": 67.6826,
        "meta_arg_of_pericenter": 5.1199,
        "meta_mean_anomaly": 46.4475,
        "meta_ephemeris_type": 0,
        "meta_classification_type": "U",
        "meta_norad_cat_id": 41586,
        "meta_element_set_no": 999,
        "meta_rev_at_epoch": 492,
        "meta_bstar": 0,
        "meta_mean_motion_dot": -3.34e-06,
        "meta_mean_motion_ddot": 0,
        "tle_line1": "1 41586U 16037A   25336.82455766 -.00000334  00000+0  00000+0 0  9992",
        "tle_line2": "2 41586   1.7308  67.6826 0004430   5.1199  46.4475  1.00271944  4929"
      },
      "geometry": {
        "type": "Point",
        "coordinates": [
          -72.51466242036312,
          -1.1224387309598294
        ]
      }
    },
    {
      "type": "Feature",
      "properties": {
        "norad_id": 41589,
        "name": "EUTELSAT 117 WEST B (WAAS/PRN 131)",
        "group": "gnss",
        "lat": -0.013705927022610255,
        "lon": 60.03532674096317,
        "alt_km": 35786.47686517528,
        "timestamp": "2025-12-03T06:58:43.478817+00:00",
        "meta_object_name": "EUTELSAT 117 WEST B (WAAS/PRN 131)",
        "meta_object_id": "2016-038B",
        "meta_epoch": "2025-12-02T10:37:38.767584",
        "meta_mean_motion": 1.0026853,
        "meta_eccentricity": 2.024e-05,
        "meta_inclination": 0.0102,
        "meta_ra_of_asc_node": 144.9746,
        "meta_arg_of_pericenter": 219.6495,
        "meta_mean_anomaly": 109.3395,
        "meta_ephemeris_type": 0,
        "meta_classification_type": "U",
        "meta_norad_cat_id": 41589,
        "meta_element_set_no": 999,
        "meta_rev_at_epoch": 3469,
        "meta_bstar": 0,
        "meta_mean_motion_dot": 9e-08,
        "meta_mean_motion_ddot": 0,
        "tle_line1": "1 41589U 16038B   25336.44280981  .00000009  00000+0  00000+0 0  9997",
        "tle_line2": "2 41589   0.0102 144.9746 0000202 219.6495 109.3395  1.00268530 34694"
      },
      "geometry": {
        "type": "Point",
        "coordinates": [
          60.03532674096317,
          -0.013705927022610255
        ]
      }
    }
  ]
}